SL-16 R/B               
1 22566U 93016B   26035.13753023  .00000046  00000+0  48189-4 0  9993
2 22566  71.0080 285.6546 0010007   1.0894 359.0248 14.15303771697426
COSMOS 2242             
1 22626U 93024A   26035.20328871  .00002913  00000+0  25411-3 0  9993
2 22626  82.5199 298.7429 0017887  60.3790 299.9211 14.96403573775386
SL-16 R/B               
1 22803U 93059B   26035.30367509  .00000273  00000+0  15856-3 0  9999
2 22803  70.9893  81.5344 0019486 262.0771  97.8141 14.17225165674800
ARIANE 40 R/B           
1 22830U 93061H   26035.17974301  .00000241  00000+0  10429-3 0  9997
2 22830  98.4987 104.7168 0011087  29.2951 330.8853 14.32842498689305
COSMOS 2278             
1 23087U 94023A   26035.28665467 -.00000236  00000+0 -98671-4 0  9995
2 23087  71.0507 244.9831 0006432  76.3212 283.8626 14.14364758640085
SL-16 R/B               
1 23088U 94023B   26035.27759224 -.00000144  00000+0 -49737-4 0  9997
2 23088  71.0000 141.0573 0004421 316.4542  43.6231 14.15003785641361
SL-16 R/B               
1 23343U 94074B   26035.11148170  .00000548  00000+0  80170-4 0  9994
2 23343  97.7150  67.2826 0006018 343.4853  84.3405 14.79366213682284
SL-16 R/B               
1 23405U 94077B   26035.27225391 -.00000118  00000+0 -35607-4 0  9994
2 23405  70.9815  62.7939 0004494 241.1558 118.9114 14.15556576611502
ARIANE 40+ R/B          
1 23561U 95021B   26035.17400027  .00000341  00000+0  12279-3 0  9992
2 23561  98.4566 107.0993 0005852 236.3210 150.3963 14.39746686614421
SL-16 R/B               
1 23705U 95058B   26034.85359731  .00000219  00000+0  13613-3 0  9998
2 23705  71.0189 251.2935 0012591 180.9441 179.1661 14.15489273563062
SL-16 R/B               
1 24298U 96051B   26034.88840412  .00000070  00000+0  64754-4 0  9992
2 24298  70.7567 246.7851 0017883 194.9600 165.0993 14.12405938516875
ORBVIEW 2 (SEASTAR)     
1 24883U 97037A   26035.30909512  .00000335  00000+0  13286-3 0  9999
2 24883  98.8509 198.7476 0002777 140.5127 219.6260 14.35467724503682
