CCSDS_OMM_VERS = 2.0
CREATION_DATE  = 
ORIGINATOR     = 

OBJECT_NAME    = SL-16 R/B
OBJECT_ID      = 1993-016B
CENTER_NAME    = EARTH
REF_FRAME      = TEME
TIME_SYSTEM    = UTC
MEAN_ELEMENT_THEORY = SGP/SGP4

EPOCH          = 2026-02-04T03:18:02.611872
MEAN_MOTION    = 14.15303771
ECCENTRICITY   = .00100079
INCLINATION    = 71.0080
RA_OF_ASC_NODE = 285.6546
ARG_OF_PERICENTER = 1.0894
MEAN_ANOMALY   = 359.0248

EPHEMERIS_TYPE = 0
CLASSIFICATION_TYPE = U
NORAD_CAT_ID   = 22566
ELEMENT_SET_NO = 999
REV_AT_EPOCH   = 69742
BSTAR          = .48189033E-4
MEAN_MOTION_DOT = .46E-6
MEAN_MOTION_DDOT = 0

CCSDS_OMM_VERS = 2.0
CREATION_DATE  = 
ORIGINATOR     = 

OBJECT_NAME    = COSMOS 2242
OBJECT_ID      = 1993-024A
CENTER_NAME    = EARTH
REF_FRAME      = TEME
TIME_SYSTEM    = UTC
MEAN_ELEMENT_THEORY = SGP/SGP4

EPOCH          = 2026-02-04T04:52:44.144544
MEAN_MOTION    = 14.96403573
ECCENTRICITY   = .00178871
INCLINATION    = 82.5199
RA_OF_ASC_NODE = 298.7429
ARG_OF_PERICENTER = 60.3790
MEAN_ANOMALY   = 299.9211

EPHEMERIS_TYPE = 0
CLASSIFICATION_TYPE = U
NORAD_CAT_ID   = 22626
ELEMENT_SET_NO = 999
REV_AT_EPOCH   = 77538
BSTAR          = .25411239E-3
MEAN_MOTION_DOT = .2913E-4
MEAN_MOTION_DDOT = 0

CCSDS_OMM_VERS = 2.0
CREATION_DATE  = 
ORIGINATOR     = 

OBJECT_NAME    = SL-16 R/B
OBJECT_ID      = 1993-059B
CENTER_NAME    = EARTH
REF_FRAME      = TEME
TIME_SYSTEM    = UTC
MEAN_ELEMENT_THEORY = SGP/SGP4

EPOCH          = 2026-02-04T07:17:17.527776
MEAN_MOTION    = 14.17225165
ECCENTRICITY   = .0019486
INCLINATION    = 70.9893
RA_OF_ASC_NODE = 81.5344
ARG_OF_PERICENTER = 262.0771
MEAN_ANOMALY   = 97.8141

EPHEMERIS_TYPE = 0
CLASSIFICATION_TYPE = U
NORAD_CAT_ID   = 22803
ELEMENT_SET_NO = 999
REV_AT_EPOCH   = 67480
BSTAR          = .15855753E-3
MEAN_MOTION_DOT = .273E-5
MEAN_MOTION_DDOT = 0

CCSDS_OMM_VERS = 2.0
CREATION_DATE  = 
ORIGINATOR     = 

OBJECT_NAME    = ARIANE 40 R/B
OBJECT_ID      = 1993-061H
CENTER_NAME    = EARTH
REF_FRAME      = TEME
TIME_SYSTEM    = UTC
MEAN_ELEMENT_THEORY = SGP/SGP4

EPOCH          = 2026-02-04T04:18:49.796064
MEAN_MOTION    = 14.32842498
ECCENTRICITY   = .00110876
INCLINATION    = 98.4987
RA_OF_ASC_NODE = 104.7168
ARG_OF_PERICENTER = 29.2951
MEAN_ANOMALY   = 330.8853

EPHEMERIS_TYPE = 0
CLASSIFICATION_TYPE = U
NORAD_CAT_ID   = 22830
ELEMENT_SET_NO = 999
REV_AT_EPOCH   = 68930
BSTAR          = .10429338E-3
MEAN_MOTION_DOT = .241E-5
MEAN_MOTION_DDOT = 0

CCSDS_OMM_VERS = 2.0
CREATION_DATE  = 
ORIGINATOR     = 

OBJECT_NAME    = COSMOS 2278
OBJECT_ID      = 1994-023A
CENTER_NAME    = EARTH
REF_FRAME      = TEME
TIME_SYSTEM    = UTC
MEAN_ELEMENT_THEORY = SGP/SGP4

EPOCH          = 2026-02-04T06:52:46.963488
MEAN_MOTION    = 14.14364758
ECCENTRICITY   = .00064324
INCLINATION    = 71.0507
RA_OF_ASC_NODE = 244.9831
ARG_OF_PERICENTER = 76.3212
MEAN_ANOMALY   = 283.8626

EPHEMERIS_TYPE = 0
CLASSIFICATION_TYPE = U
NORAD_CAT_ID   = 23087
ELEMENT_SET_NO = 999
REV_AT_EPOCH   = 64008
BSTAR          = -.98671082E-4
MEAN_MOTION_DOT = -.236E-5
MEAN_MOTION_DDOT = 0

CCSDS_OMM_VERS = 2.0
CREATION_DATE  = 
ORIGINATOR     = 

OBJECT_NAME    = SL-16 R/B
OBJECT_ID      = 1994-023B
CENTER_NAME    = EARTH
REF_FRAME      = TEME
TIME_SYSTEM    = UTC
MEAN_ELEMENT_THEORY = SGP/SGP4

EPOCH          = 2026-02-04T06:39:43.969536
MEAN_MOTION    = 14.15003785
ECCENTRICITY   = .00044219
INCLINATION    = 71.0000
RA_OF_ASC_NODE = 141.0573
ARG_OF_PERICENTER = 316.4542
MEAN_ANOMALY   = 43.6231

EPHEMERIS_TYPE = 0
CLASSIFICATION_TYPE = U
NORAD_CAT_ID   = 23088
ELEMENT_SET_NO = 999
REV_AT_EPOCH   = 64136
BSTAR          = -.49737317E-4
MEAN_MOTION_DOT = -.144E-5
MEAN_MOTION_DDOT = 0

CCSDS_OMM_VERS = 2.0
CREATION_DATE  = 
ORIGINATOR     = 

OBJECT_NAME    = SL-16 R/B
OBJECT_ID      = 1994-074B
CENTER_NAME    = EARTH
REF_FRAME      = TEME
TIME_SYSTEM    = UTC
MEAN_ELEMENT_THEORY = SGP/SGP4

EPOCH          = 2026-02-04T02:40:32.018880
MEAN_MOTION    = 14.79366213
ECCENTRICITY   = .00060189
INCLINATION    = 97.7150
RA_OF_ASC_NODE = 67.2826
ARG_OF_PERICENTER = 343.4853
MEAN_ANOMALY   = 84.3405

EPHEMERIS_TYPE = 0
CLASSIFICATION_TYPE = U
NORAD_CAT_ID   = 23343
ELEMENT_SET_NO = 999
REV_AT_EPOCH   = 68228
BSTAR          = .80170195E-4
MEAN_MOTION_DOT = .548E-5
MEAN_MOTION_DDOT = 0

CCSDS_OMM_VERS = 2.0
CREATION_DATE  = 
ORIGINATOR     = 

OBJECT_NAME    = SL-16 R/B
OBJECT_ID      = 1994-077B
CENTER_NAME    = EARTH
REF_FRAME      = TEME
TIME_SYSTEM    = UTC
MEAN_ELEMENT_THEORY = SGP/SGP4

EPOCH          = 2026-02-04T06:32:02.737824
MEAN_MOTION    = 14.15556576
ECCENTRICITY   = .00044943
INCLINATION    = 70.9815
RA_OF_ASC_NODE = 62.7939
ARG_OF_PERICENTER = 241.1558
MEAN_ANOMALY   = 118.9114

EPHEMERIS_TYPE = 0
CLASSIFICATION_TYPE = U
NORAD_CAT_ID   = 23405
ELEMENT_SET_NO = 999
REV_AT_EPOCH   = 61150
BSTAR          = -.35607087E-4
MEAN_MOTION_DOT = -.118E-5
MEAN_MOTION_DDOT = 0

CCSDS_OMM_VERS = 2.0
CREATION_DATE  = 
ORIGINATOR     = 

OBJECT_NAME    = ARIANE 40+ R/B
OBJECT_ID      = 1995-021B
CENTER_NAME    = EARTH
REF_FRAME      = TEME
TIME_SYSTEM    = UTC
MEAN_ELEMENT_THEORY = SGP/SGP4

EPOCH          = 2026-02-04T04:10:33.623328
MEAN_MOTION    = 14.39746686
ECCENTRICITY   = .00058527
INCLINATION    = 98.4566
RA_OF_ASC_NODE = 107.0993
ARG_OF_PERICENTER = 236.3210
MEAN_ANOMALY   = 150.3963

EPHEMERIS_TYPE = 0
CLASSIFICATION_TYPE = U
NORAD_CAT_ID   = 23561
ELEMENT_SET_NO = 999
REV_AT_EPOCH   = 61442
BSTAR          = .12278544E-3
MEAN_MOTION_DOT = .341E-5
MEAN_MOTION_DDOT = 0

CCSDS_OMM_VERS = 2.0
CREATION_DATE  = 
ORIGINATOR     = 

OBJECT_NAME    = SL-16 R/B
OBJECT_ID      = 1995-058B
CENTER_NAME    = EARTH
REF_FRAME      = TEME
TIME_SYSTEM    = UTC
MEAN_ELEMENT_THEORY = SGP/SGP4

EPOCH          = 2026-02-03T20:29:10.807584
MEAN_MOTION    = 14.15489273
ECCENTRICITY   = .00125917
INCLINATION    = 71.0189
RA_OF_ASC_NODE = 251.2935
ARG_OF_PERICENTER = 180.9441
MEAN_ANOMALY   = 179.1661

EPHEMERIS_TYPE = 0
CLASSIFICATION_TYPE = U
NORAD_CAT_ID   = 23705
ELEMENT_SET_NO = 999
REV_AT_EPOCH   = 56306
BSTAR          = .13612998E-3
MEAN_MOTION_DOT = .219E-5
MEAN_MOTION_DDOT = 0

CCSDS_OMM_VERS = 2.0
CREATION_DATE  = 
ORIGINATOR     = 

OBJECT_NAME    = SL-16 R/B
OBJECT_ID      = 1996-051B
CENTER_NAME    = EARTH
REF_FRAME      = TEME
TIME_SYSTEM    = UTC
MEAN_ELEMENT_THEORY = SGP/SGP4

EPOCH          = 2026-02-03T21:19:18.115968
MEAN_MOTION    = 14.12405938
ECCENTRICITY   = .00178836
INCLINATION    = 70.7567
RA_OF_ASC_NODE = 246.7851
ARG_OF_PERICENTER = 194.9600
MEAN_ANOMALY   = 165.0993

EPHEMERIS_TYPE = 0
CLASSIFICATION_TYPE = U
NORAD_CAT_ID   = 24298
ELEMENT_SET_NO = 999
REV_AT_EPOCH   = 51687
BSTAR          = .64754357E-4
MEAN_MOTION_DOT = .7E-6
MEAN_MOTION_DDOT = 0

CCSDS_OMM_VERS = 2.0
CREATION_DATE  = 
ORIGINATOR     = 

OBJECT_NAME    = ORBVIEW 2 (SEASTAR)
OBJECT_ID      = 1997-037A
CENTER_NAME    = EARTH
REF_FRAME      = TEME
TIME_SYSTEM    = UTC
MEAN_ELEMENT_THEORY = SGP/SGP4

EPOCH          = 2026-02-04T07:25:05.818368
MEAN_MOTION    = 14.35467724
ECCENTRICITY   = .00027773
INCLINATION    = 98.8509
RA_OF_ASC_NODE = 198.7476
ARG_OF_PERICENTER = 140.5127
MEAN_ANOMALY   = 219.6260

EPHEMERIS_TYPE = 0
CLASSIFICATION_TYPE = U
NORAD_CAT_ID   = 24883
ELEMENT_SET_NO = 999
REV_AT_EPOCH   = 50368
BSTAR          = .13286401E-3
MEAN_MOTION_DOT = .335E-5
MEAN_MOTION_DDOT = 0

